{"type":"FeatureCollection","features":[{"type": "Feature", "id": "P4zz_zBqmHESfZDF-vCeQlGFF9Y=", "properties": {"ref": "15782168d19746dfbf849218ee12350b", "@spider": "klubfox", "addr:full": "Shop No.20, Stadium Market,Gondia", "phones": {"Store": []}, "email": {"Customer Service": []}, "website": "https://www.klubfox.com/_api/cloud-data/v1/wix-data/collections/query", "operatingHours": {"Store": []}, "brand": "Klub Fox", "chain_id": 34167, "chain_name": "Klub Fox"}},
{"type": "Feature", "id": "4H9rQKjCaffG9Muz3rf_e4wUe6E=", "properties": {"ref": "7085c13b842f442e97d3522a6be47a18", "@spider": "klubfox", "addr:full": "MAHUWALA COMPLEX,A B ROAD,NEAR HOTEL UTSAV,GUNA,\nMADHYA PRADESH-473001,TEL:-07542408802", "phones": {"Store": []}, "email": {"Customer Service": []}, "website": "https://www.klubfox.com/_api/cloud-data/v1/wix-data/collections/query", "operatingHours": {"Store": []}, "brand": "Klub Fox", "chain_id": 34167, "chain_name": "Klub Fox"}},
{"type": "Feature", "id": "HFw69WOTFTkC4EkqYJ--ilR4xtA=", "properties": {"ref": "bab537870f604b1aa7462c8d0bb36db7", "@spider": "klubfox", "addr:full": "SHOP NO 9, CHAMPA BAGH NAI SADAK Gwalior", "phones": {"Store": []}, "email": {"Customer Service": []}, "website": "https://www.klubfox.com/_api/cloud-data/v1/wix-data/collections/query", "operatingHours": {"Store": []}, "brand": "Klub Fox", "chain_id": 34167, "chain_name": "Klub Fox"}},
{"type": "Feature", "id": "uePb9PJF38vzztzPrc_zsJuWaR0=", "properties": {"ref": "1979637335b7459bbe7d89ef7fe04c70", "@spider": "klubfox", "addr:full": "DINDAYAL CITYMALL SHOP -F-17 M.L.B.ROAD,GWALIOR\nMOBILE NO:-0751-4031849", "phones": {"Store": []}, "email": {"Customer Service": []}, "website": "https://www.klubfox.com/_api/cloud-data/v1/wix-data/collections/query", "operatingHours": {"Store": []}, "brand": "Klub Fox", "chain_id": 34167, "chain_name": "Klub Fox"}},
{"type": "Feature", "id": "fk8ZXDprEGK8tgqXQR2NJ2IreqU=", "properties": {"ref": "c9cdb51951fc487ca3e54564fc6257b4", "@spider": "klubfox", "addr:full": "HDFC BANK, CITY CENTER  GWALIOR", "phones": {"Store": []}, "email": {"Customer Service": []}, "website": "https://www.klubfox.com/_api/cloud-data/v1/wix-data/collections/query", "operatingHours": {"Store": []}, "brand": "Klub Fox", "chain_id": 34167, "chain_name": "Klub Fox"}},
{"type": "Feature", "id": "Nhw7uLy5Cvd5GkT6rrzoicU5Hg8=", "properties": {"ref": "6ecd5635e7e8410e95af54bdaf940c76", "@spider": "klubfox", "addr:full": "SHOP NO 7 GANGA NAGAR ROAD NEAR HOTEL SAMRAT HANUMANGARH JN RAJASTHAN MOB:-8005602181", "phones": {"Store": []}, "email": {"Customer Service": []}, "website": "https://www.klubfox.com/_api/cloud-data/v1/wix-data/collections/query", "operatingHours": {"Store": []}, "brand": "Klub Fox", "chain_id": 34167, "chain_name": "Klub Fox"}},
{"type": "Feature", "id": "KI3ZHDDToDXcBZa6_uyptpU9R-E=", "properties": {"ref": "d76ff095600a448b92d8dc1583d3f77b", "@spider": "klubfox", "addr:full": "MAIN ROAD SANJAY WARD Harda", "phones": {"Store": []}, "email": {"Customer Service": []}, "website": "https://www.klubfox.com/_api/cloud-data/v1/wix-data/collections/query", "operatingHours": {"Store": []}, "brand": "Klub Fox", "chain_id": 34167, "chain_name": "Klub Fox"}},
{"type": "Feature", "id": "iqZ23w9Xzgt0mt7YmDTZQCYw7r4=", "properties": {"ref": "8ff9725cadad437ab9bd634716a2c9a5", "@spider": "klubfox", "addr:full": "SCF-86,RAJGURU MARKET,HISAR,HARYANA\nMOBILE NO:-9138000024", "phones": {"Store": []}, "email": {"Customer Service": []}, "website": "https://www.klubfox.com/_api/cloud-data/v1/wix-data/collections/query", "operatingHours": {"Store": []}, "brand": "Klub Fox", "chain_id": 34167, "chain_name": "Klub Fox"}},
{"type": "Feature", "id": "jukENZ3L-10m4PbvP2E7hIi5pd0=", "properties": {"ref": "262dc6a14ac14f7e9bed9f65e51873eb", "@spider": "klubfox", "addr:full": "R-3,GROUND FLOOR,CITY CENTER,570 M.G.ROAD,OPP-HIGH COURT, INDORE 07314049525", "phones": {"Store": []}, "email": {"Customer Service": []}, "website": "https://www.klubfox.com/_api/cloud-data/v1/wix-data/collections/query", "operatingHours": {"Store": []}, "brand": "Klub Fox", "chain_id": 34167, "chain_name": "Klub Fox"}},
{"type": "Feature", "id": "3jJGtF0OFunv6_MwfpTRBUIP9wY=", "properties": {"ref": "06499388613046ce8c8dd7657bd59756", "@spider": "klubfox", "addr:full": "G-6, B.M.TOWER, opp. Lotus,SAPNA SANGITA ROAD,INDORE", "phones": {"Store": []}, "email": {"Customer Service": []}, "website": "https://www.klubfox.com/_api/cloud-data/v1/wix-data/collections/query", "operatingHours": {"Store": []}, "brand": "Klub Fox", "chain_id": 34167, "chain_name": "Klub Fox"}},
{"type": "Feature", "id": "Hp49HxoMT_WDjaQXfNk8E5WtStM=", "properties": {"ref": "b5379a6de798405bb965a56eb578cf0a", "@spider": "klubfox", "addr:full": "SHOP NO 3,ROUNAK COMPLEX,MAIN ROAD,GORAKHPUR,JABALPUR,\nMADHYA PRADESH:-482001,MOBILE NO:-9200192001", "phones": {"Store": []}, "email": {"Customer Service": []}, "website": "https://www.klubfox.com/_api/cloud-data/v1/wix-data/collections/query", "operatingHours": {"Store": []}, "brand": "Klub Fox", "chain_id": 34167, "chain_name": "Klub Fox"}},
{"type": "Feature", "id": "x7kFVuq9HX4SLHFIZLbT7kD-XR4=", "properties": {"ref": "13790b2f043547c8b89d1403038c5fba", "@spider": "klubfox", "addr:full": "42,MAIN ROAD GANJIPURA JABALPUR", "phones": {"Store": []}, "email": {"Customer Service": []}, "website": "https://www.klubfox.com/_api/cloud-data/v1/wix-data/collections/query", "operatingHours": {"Store": []}, "brand": "Klub Fox", "chain_id": 34167, "chain_name": "Klub Fox"}},
{"type": "Feature", "id": "8zw8u_rBf8g-QfwFxdFAumKNgds=", "properties": {"ref": "76d655a710a5414a85b2a48892a27f6f", "@spider": "klubfox", "addr:full": "Shop No. UGF-11, Samdareeya Mall,Civic Center, Jabalpur\nMobile No:-0761-4041112", "phones": {"Store": []}, "email": {"Customer Service": []}, "website": "https://www.klubfox.com/_api/cloud-data/v1/wix-data/collections/query", "operatingHours": {"Store": []}, "brand": "Klub Fox", "chain_id": 34167, "chain_name": "Klub Fox"}},
{"type": "Feature", "id": "leexNULXAauInNdPwwWNG-uXeDw=", "properties": {"ref": "13969c66efc34adc9720e347bc3d9d92", "@spider": "klubfox", "addr:full": "B-2 PRESTIGE TOWER NEAR AMRAPALI CIRCLE VAISHALI NAGAR JAIPUR RAJASTHAN", "phones": {"Store": []}, "email": {"Customer Service": []}, "website": "https://www.klubfox.com/_api/cloud-data/v1/wix-data/collections/query", "operatingHours": {"Store": []}, "brand": "Klub Fox", "chain_id": 34167, "chain_name": "Klub Fox"}},
{"type": "Feature", "id": "PSoz4xED3DF-Lw4tPVaXPuUSgeU=", "properties": {"ref": "381bb3314a104de9a0d3257a4ef7a241", "@spider": "klubfox", "addr:full": "G-18 CRYSTAL COURT,MALVIYA NAGAR,JAIPUR,RAJ, M:-6377742781", "phones": {"Store": []}, "email": {"Customer Service": []}, "website": "https://www.klubfox.com/_api/cloud-data/v1/wix-data/collections/query", "operatingHours": {"Store": []}, "brand": "Klub Fox", "chain_id": 34167, "chain_name": "Klub Fox"}},
{"type": "Feature", "id": "VOafV7XpAcR1cucjBLR2D6If-dY=", "properties": {"ref": "d48cd6c27290462aa8e0435cdea43134", "@spider": "klubfox", "addr:full": "GF-3-A,JAIPUR TEXTILE MARKET,MODEL TOWN,MALIVYA NAGAR,JAGATPURA,JAIPUR", "phones": {"Store": []}, "email": {"Customer Service": []}, "website": "https://www.klubfox.com/_api/cloud-data/v1/wix-data/collections/query", "operatingHours": {"Store": []}, "brand": "Klub Fox", "chain_id": 34167, "chain_name": "Klub Fox"}},
{"type": "Feature", "id": "8AaS9A9kgiqD_PZZCzv9KDmyJQA=", "properties": {"ref": "b0f36e766c5f4deb8c4113837ee4e086", "@spider": "klubfox", "addr:full": "84/254 MADHYAM MARG MANSAROVAR JAIPUR", "phones": {"Store": []}, "email": {"Customer Service": []}, "website": "https://www.klubfox.com/_api/cloud-data/v1/wix-data/collections/query", "operatingHours": {"Store": []}, "brand": "Klub Fox", "chain_id": 34167, "chain_name": "Klub Fox"}},
{"type": "Feature", "id": "E3E6ofip8Ag25tf8oGzJf_oGQms=", "properties": {"ref": "3721890a10134c668d233d1a5fb5afcc", "@spider": "klubfox", "addr:full": "SHOP NO G-11,KRYSTAL BUSINESS CENTER.MAMA CHOWK,BUS STAND ROAD,\nJALNA-431203", "phones": {"Store": []}, "email": {"Customer Service": []}, "website": "https://www.klubfox.com/_api/cloud-data/v1/wix-data/collections/query", "operatingHours": {"Store": []}, "brand": "Klub Fox", "chain_id": 34167, "chain_name": "Klub Fox"}},
{"type": "Feature", "id": "Ih5ryNX7kryelyHUXSJvLQpmoxM=", "properties": {"ref": "ca91bf314e2f4206ac87661a1794b5d2", "@spider": "klubfox", "addr:full": "SADAR BAZAR  ,JHANSI\nMOBILE NO:-07619082888 / 7985483095", "phones": {"Store": []}, "email": {"Customer Service": []}, "website": "https://www.klubfox.com/_api/cloud-data/v1/wix-data/collections/query", "operatingHours": {"Store": []}, "brand": "Klub Fox", "chain_id": 34167, "chain_name": "Klub Fox"}},
{"type": "Feature", "id": "O-6ZAbNj3SY6rXvvYcEAYr5G8y8=", "properties": {"ref": "103fe668b1d3489aa96ae40f77a3239c", "@spider": "klubfox", "addr:full": "INFRONT OF GUJRATI SCHOOL, JHANDA CHOWK, MAIN ROAD, JHARSUGUDA, ODISHA", "phones": {"Store": []}, "email": {"Customer Service": []}, "website": "https://www.klubfox.com/_api/cloud-data/v1/wix-data/collections/query", "operatingHours": {"Store": []}, "brand": "Klub Fox", "chain_id": 34167, "chain_name": "Klub Fox"}},
{"type": "Feature", "id": "e7QnINfYnZb-PIgunJ9iNGdikhw=", "properties": {"ref": "491be25add284ce2aaff40ee441fa3a5", "@spider": "klubfox", "addr:full": "NEAR G. B. MODI SCHOOL,SHAH MARKET,Jhunjhunu", "phones": {"Store": []}, "email": {"Customer Service": []}, "website": "https://www.klubfox.com/_api/cloud-data/v1/wix-data/collections/query", "operatingHours": {"Store": []}, "brand": "Klub Fox", "chain_id": 34167, "chain_name": "Klub Fox"}},
{"type": "Feature", "id": "HBkX8t8R6KknC1_VrKibpO9FftM=", "properties": {"ref": "d9e40eb6f4ea4cf280954496064250cc", "@spider": "klubfox", "addr:full": "G8,PADMA CITY MALL KAITHAL HARYANA\nMOBILE NO:-8572025989", "phones": {"Store": []}, "email": {"Customer Service": []}, "website": "https://www.klubfox.com/_api/cloud-data/v1/wix-data/collections/query", "operatingHours": {"Store": []}, "brand": "Klub Fox", "chain_id": 34167, "chain_name": "Klub Fox"}},
{"type": "Feature", "id": "JjUN9hB_6e3B5kaN7CX2ltM9rag=", "properties": {"ref": "651f448574924660bb1fcc7fb065422e", "@spider": "klubfox", "addr:full": "BUILDING NO 42,SHOP NO.1 SURANA CHAMBER ,Kankroli,Rajasthan", "phones": {"Store": []}, "email": {"Customer Service": []}, "website": "https://www.klubfox.com/_api/cloud-data/v1/wix-data/collections/query", "operatingHours": {"Store": []}, "brand": "Klub Fox", "chain_id": 34167, "chain_name": "Klub Fox"}},
{"type": "Feature", "id": "FuDakKLpU3A8qB_LB0iEvQap3mU=", "properties": {"ref": "7d8202208fd14e92abc99ab60634009d", "@spider": "klubfox", "addr:full": "INFRONT OF RAJA TRACTOR,SHUBH SHREE  COMPLEX,KARELI\nMOBILE NO:-9977780088/8770010098. 9977473793", "phones": {"Store": []}, "email": {"Customer Service": []}, "website": "https://www.klubfox.com/_api/cloud-data/v1/wix-data/collections/query", "operatingHours": {"Store": []}, "brand": "Klub Fox", "chain_id": 34167, "chain_name": "Klub Fox"}},
{"type": "Feature", "id": "PVNVe2izlUI_0wsA4tIjkIZRKCo=", "properties": {"ref": "418657c077df4481b01367f10c195e5c", "@spider": "klubfox", "addr:full": "Post Tengu market in Front of Ganja Godown Market, Bombay Bazaar,Khandwa\nMobile No:-0733-2223334", "phones": {"Store": []}, "email": {"Customer Service": []}, "website": "https://www.klubfox.com/_api/cloud-data/v1/wix-data/collections/query", "operatingHours": {"Store": []}, "brand": "Klub Fox", "chain_id": 34167, "chain_name": "Klub Fox"}},
{"type": "Feature", "id": "o5lXym1UIVsg0ABlRDiHsY2_Hpg=", "properties": {"ref": "33a36ce8978c444aae302b118a4dc4d9", "@spider": "klubfox", "addr:full": "FRONT OF PNB ATM,NAHAR ROAD,DIST:-REWARI ,KOSLI ,HARYANA\nPINCODE:-123302,Mob:-9416214823", "phones": {"Store": []}, "email": {"Customer Service": []}, "website": "https://www.klubfox.com/_api/cloud-data/v1/wix-data/collections/query", "operatingHours": {"Store": []}, "brand": "Klub Fox", "chain_id": 34167, "chain_name": "Klub Fox"}},
{"type": "Feature", "id": "Qfiv8V0Zi8r9NYMNP4oQNBwRbq8=", "properties": {"ref": "85ca46b4885f45269ae321588211d3dd", "@spider": "klubfox", "addr:full": "F-5, 1ST FLOOR, CITY MALL, KOTA, RAJASTHAN", "phones": {"Store": []}, "email": {"Customer Service": []}, "website": "https://www.klubfox.com/_api/cloud-data/v1/wix-data/collections/query", "operatingHours": {"Store": []}, "brand": "Klub Fox", "chain_id": 34167, "chain_name": "Klub Fox"}},
{"type": "Feature", "id": "11Gw8Icm1LKWTRcuUW9zWjWKPYE=", "properties": {"ref": "958a29c4c23849debb9a11c47362c0cc", "@spider": "klubfox", "addr:full": "OPP NATRAJ CINEMA,SUBHASH CHOWK,LATUR\nMOBILE NO:-9423078487", "phones": {"Store": []}, "email": {"Customer Service": []}, "website": "https://www.klubfox.com/_api/cloud-data/v1/wix-data/collections/query", "operatingHours": {"Store": []}, "brand": "Klub Fox", "chain_id": 34167, "chain_name": "Klub Fox"}},
{"type": "Feature", "id": "VS4N11HCVDh1DGnTuqEYKfSClRQ=", "properties": {"ref": "cb5289b742474a4cbe794d6ae180940c", "@spider": "klubfox", "addr:full": "GF2 UDAY PLAZA GOMTI NAGAR PATRAKARPURAM LUCKNOW UTTAR PRADESH PINCODE 226010", "phones": {"Store": []}, "email": {"Customer Service": []}, "website": "https://www.klubfox.com/_api/cloud-data/v1/wix-data/collections/query", "operatingHours": {"Store": []}, "brand": "Klub Fox", "chain_id": 34167, "chain_name": "Klub Fox"}},
{"type": "Feature", "id": "J6col_VZ6a3GvHWsQVwgAARG-LI=", "properties": {"ref": "0f1b9704c02347cf939870184533c7d0", "@spider": "klubfox", "addr:full": "MMB1/137 SEC. B  SBI COLONY, SITAPUR ROAD,YOJN, ALIGANJ,Lucknow", "phones": {"Store": []}, "email": {"Customer Service": []}, "website": "https://www.klubfox.com/_api/cloud-data/v1/wix-data/collections/query", "operatingHours": {"Store": []}, "brand": "Klub Fox", "chain_id": 34167, "chain_name": "Klub Fox"}},
{"type": "Feature", "id": "efPogJZ0Yy0TBEdcjsLA-dyKMas=", "properties": {"ref": "f8fb5517b5b74aa4b24023ffbd9da67f", "@spider": "klubfox", "addr:full": "5/CP-105,SECTOR-5,SHALIMAR MALL INDIRA NAGAR,NEAR BHOOTNATH MARKET,LUCKNOW,UTTARPRADESH", "phones": {"Store": []}, "email": {"Customer Service": []}, "website": "https://www.klubfox.com/_api/cloud-data/v1/wix-data/collections/query", "operatingHours": {"Store": []}, "brand": "Klub Fox", "chain_id": 34167, "chain_name": "Klub Fox"}},
{"type": "Feature", "id": "Gevut2ysb5JJ1-NFveX56-5fVYk=", "properties": {"ref": "3f3265c5084c4e4e88c7770e2dd9d241", "@spider": "klubfox", "addr:full": "A6 Baijnath Building,Alambagh,Lucknow, Uttar Pradesh", "phones": {"Store": []}, "email": {"Customer Service": []}, "website": "https://www.klubfox.com/_api/cloud-data/v1/wix-data/collections/query", "operatingHours": {"Store": []}, "brand": "Klub Fox", "chain_id": 34167, "chain_name": "Klub Fox"}},
{"type": "Feature", "id": "ueTrOwO5evrtIPwoBk3_TgViuBs=", "properties": {"ref": "f54240ccb56a4cadae56d5f3c2ff9da8", "@spider": "klubfox", "addr:full": "SHOP NO 1 ARIF CHAMBER KAPOORTHALA LUCKNOW", "phones": {"Store": []}, "email": {"Customer Service": []}, "website": "https://www.klubfox.com/_api/cloud-data/v1/wix-data/collections/query", "operatingHours": {"Store": []}, "brand": "Klub Fox", "chain_id": 34167, "chain_name": "Klub Fox"}},
{"type": "Feature", "id": "PKEOCDVzi1DdZoFVYHYmmbolgu4=", "properties": {"ref": "6c3b9d54f76c4d7c9e1be803ad979e14", "@spider": "klubfox", "addr:full": "CHHAJAMANPURA,Mahoba", "phones": {"Store": []}, "email": {"Customer Service": []}, "website": "https://www.klubfox.com/_api/cloud-data/v1/wix-data/collections/query", "operatingHours": {"Store": []}, "brand": "Klub Fox", "chain_id": 34167, "chain_name": "Klub Fox"}},
{"type": "Feature", "id": "dWK3I622HyHk2LQthjPLvKpGCaE=", "properties": {"ref": "2a8dbf5d363d4361ad1958850330e2d8", "@spider": "klubfox", "addr:full": "Shop No.1, Chopda Complex,Near SBI Chowk, NH 7,Maihar", "phones": {"Store": []}, "email": {"Customer Service": []}, "website": "https://www.klubfox.com/_api/cloud-data/v1/wix-data/collections/query", "operatingHours": {"Store": []}, "brand": "Klub Fox", "chain_id": 34167, "chain_name": "Klub Fox"}},
{"type": "Feature", "id": "dvsHVxicnJCYv22fGcgW84JXo5o=", "properties": {"ref": "9ce2b66ff5a74ad4b4769a02c4ca284c", "@spider": "klubfox", "addr:full": "13,14 , CINEMA ROAD,MALKAPUR", "phones": {"Store": []}, "email": {"Customer Service": []}, "website": "https://www.klubfox.com/_api/cloud-data/v1/wix-data/collections/query", "operatingHours": {"Store": []}, "brand": "Klub Fox", "chain_id": 34167, "chain_name": "Klub Fox"}},
{"type": "Feature", "id": "B0t1YST4oApWUcAAGkLIZwe2pvA=", "properties": {"ref": "05097fabc8ac4f0fa5bf5a0d9d678c7e", "@spider": "klubfox", "addr:full": "NEAR SAMSUNG SHOWROOM,GANDHI CHOURAHA, Mandsaur\nPH NO.- 07422404106", "phones": {"Store": []}, "email": {"Customer Service": []}, "website": "https://www.klubfox.com/_api/cloud-data/v1/wix-data/collections/query", "operatingHours": {"Store": []}, "brand": "Klub Fox", "chain_id": 34167, "chain_name": "Klub Fox"}},
{"type": "Feature", "id": "rKV_lM7tee7JynqmYMZ8Q7JopNE=", "properties": {"ref": "6245bb1428be4b19a7b52b17f399ff72", "@spider": "klubfox", "addr:full": "306,MAIN STREET,OPPOSITE TO NARSINGH MANDIR,MHOW", "phones": {"Store": []}, "email": {"Customer Service": []}, "website": "https://www.klubfox.com/_api/cloud-data/v1/wix-data/collections/query", "operatingHours": {"Store": []}, "brand": "Klub Fox", "chain_id": 34167, "chain_name": "Klub Fox"}},
{"type": "Feature", "id": "aXUn8R5Di-p5okhQ8Nr2EHqg6jg=", "properties": {"ref": "93c93e5aa8294629afb10c8144b6075d", "@spider": "klubfox", "addr:full": "SADAR BAZAR, MORAR , GWALIOR. MP.", "phones": {"Store": []}, "email": {"Customer Service": []}, "website": "https://www.klubfox.com/_api/cloud-data/v1/wix-data/collections/query", "operatingHours": {"Store": []}, "brand": "Klub Fox", "chain_id": 34167, "chain_name": "Klub Fox"}},
{"type": "Feature", "id": "6R4WCO22H0PFE_9iceUZctBubBc=", "properties": {"ref": "a1274bae0a1b4102916c18ee889ad16d", "@spider": "klubfox", "addr:full": "PATEL WARD,STATION ROAD,MULTAI,DIST-BETUL,MADHYA PRADESH\nPINCODE:-460661\nMOBILE NO:-9098510208/9617518724", "phones": {"Store": []}, "email": {"Customer Service": []}, "website": "https://www.klubfox.com/_api/cloud-data/v1/wix-data/collections/query", "operatingHours": {"Store": []}, "brand": "Klub Fox", "chain_id": 34167, "chain_name": "Klub Fox"}},
{"type": "Feature", "id": "oKVvHvY7TuCeEJEhOuNrFoRn4KQ=", "properties": {"ref": "15aba35290954c9293a9c9d5f03634a2", "@spider": "klubfox", "addr:full": "SHOP NO G-32,GROUND FLOOR,IMPRESS MALL,NAGPUR", "phones": {"Store": []}, "email": {"Customer Service": []}, "website": "https://www.klubfox.com/_api/cloud-data/v1/wix-data/collections/query", "operatingHours": {"Store": []}, "brand": "Klub Fox", "chain_id": 34167, "chain_name": "Klub Fox"}},
{"type": "Feature", "id": "_1Ka0c5PqkacrKP_DWgHdRMPa6c=", "properties": {"ref": "3f968f723b9543eb8425be0117b4735d", "@spider": "klubfox", "addr:full": "GROUND FLOOR SHOP NO.1 & 28 SANMAN PRESTIGE RAILWAY \nSTATION ROAD, NANDED,PINCODE:-431605\nMOBILE NO:-7875552157", "phones": {"Store": []}, "email": {"Customer Service": []}, "website": "https://www.klubfox.com/_api/cloud-data/v1/wix-data/collections/query", "operatingHours": {"Store": []}, "brand": "Klub Fox", "chain_id": 34167, "chain_name": "Klub Fox"}},
{"type": "Feature", "id": "Tc4Air7dW7oBsAz5KnQLS3pYBtQ=", "properties": {"ref": "a08ff5afd5774431ba8d158abfab6e2e", "@spider": "klubfox", "addr:full": "1263, Ahilyadevi Road,Dist- Nandurbar,Maharashtra\nTel No:-02564 222517", "phones": {"Store": []}, "email": {"Customer Service": []}, "website": "https://www.klubfox.com/_api/cloud-data/v1/wix-data/collections/query", "operatingHours": {"Store": []}, "brand": "Klub Fox", "chain_id": 34167, "chain_name": "Klub Fox"}},
{"type": "Feature", "id": "qx_F2128pe76h9xhZrX2dTsTfDY=", "properties": {"ref": "2e6119c30e3d42fca611d1d0cfaa718b", "@spider": "klubfox", "addr:full": "OPP PANCHYAT BHAWAN,NEAR BAJAJ AGENCY,MOHINDER GARH ROAD,NARNAUL,HARYANA", "phones": {"Store": []}, "email": {"Customer Service": []}, "website": "https://www.klubfox.com/_api/cloud-data/v1/wix-data/collections/query", "operatingHours": {"Store": []}, "brand": "Klub Fox", "chain_id": 34167, "chain_name": "Klub Fox"}},
{"type": "Feature", "id": "RjkZ2QJvjc_BnpDvZsnzTo25h0U=", "properties": {"ref": "45026253969349a09833394643e87c08", "@spider": "klubfox", "addr:full": "SHOP NO 105,DATTATRAYA DARSHAN APARTMENT OPP BIG BAZAR COLLEGE ROAD NASHIK", "phones": {"Store": []}, "email": {"Customer Service": []}, "website": "https://www.klubfox.com/_api/cloud-data/v1/wix-data/collections/query", "operatingHours": {"Store": []}, "brand": "Klub Fox", "chain_id": 34167, "chain_name": "Klub Fox"}},
{"type": "Feature", "id": "C1Dc0R6FN-BOAU8w7T89MwYzv8Y=", "properties": {"ref": "cfde069b6e834665b4d3b5d4524de662", "@spider": "klubfox", "addr:full": "Near Ashapur Temple ,navapur Maharashtra", "phones": {"Store": []}, "email": {"Customer Service": []}, "website": "https://www.klubfox.com/_api/cloud-data/v1/wix-data/collections/query", "operatingHours": {"Store": []}, "brand": "Klub Fox", "chain_id": 34167, "chain_name": "Klub Fox"}},
{"type": "Feature", "id": "Hn5Mra-CAWkU7pMQvGh_vuAAmGk=", "properties": {"ref": "612e2a0b64414a3e9eebf3a769aa1ef5", "@spider": "klubfox", "addr:full": "Shop no:- 32, Ground Floor,Patel Heritage, Plot no:- 15/17, Sector:- 7 Kharghar, \nNavi Mumbai", "phones": {"Store": []}, "email": {"Customer Service": []}, "website": "https://www.klubfox.com/_api/cloud-data/v1/wix-data/collections/query", "operatingHours": {"Store": []}, "brand": "Klub Fox", "chain_id": 34167, "chain_name": "Klub Fox"}},
{"type": "Feature", "id": "qlf2nUfSzIJJfJh4v2BhY93eXis=", "properties": {"ref": "273b0cc1419d4452b3eb780b75630a48", "@spider": "klubfox", "addr:full": "Plot No 4,Opp Jaipuria Eye Hospital,Station Road,Teerupati Market,Nawalgarh\nDistrict-Jhunjhunu Rajsthan Pincode No:333042\nMobile No:9784472712", "phones": {"Store": []}, "email": {"Customer Service": []}, "website": "https://www.klubfox.com/_api/cloud-data/v1/wix-data/collections/query", "operatingHours": {"Store": []}, "brand": "Klub Fox", "chain_id": 34167, "chain_name": "Klub Fox"}},
{"type": "Feature", "id": "dPclsowiLKcCO8GpvCVOtGsV1L0=", "properties": {"ref": "140c84bee651422ca8238e1b400c38a6", "@spider": "klubfox", "addr:full": "9, Patel Plaza, Tagore Marg,Neemuch,Madhya Pradesh", "phones": {"Store": []}, "email": {"Customer Service": []}, "website": "https://www.klubfox.com/_api/cloud-data/v1/wix-data/collections/query", "operatingHours": {"Store": []}, "brand": "Klub Fox", "chain_id": 34167, "chain_name": "Klub Fox"}},
{"type": "Feature", "id": "gy3ASU_kDw_mAdj-UTVCUZjq6vc=", "properties": {"ref": "47e5fa24704149d5b759e3b708d17fe4", "@spider": "klubfox", "addr:full": "NEEMUCH ROAD,JAWAD DARWAZA, NIMBAHERA,RAJASTHAN", "phones": {"Store": []}, "email": {"Customer Service": []}, "website": "https://www.klubfox.com/_api/cloud-data/v1/wix-data/collections/query", "operatingHours": {"Store": []}, "brand": "Klub Fox", "chain_id": 34167, "chain_name": "Klub Fox"}},
{"type": "Feature", "id": "AXKsbCr1cKUp5ApLZ2Ebz1MM0Gk=", "properties": {"ref": "b8c8fd02afea4057827d346ed7f0a33b", "@spider": "klubfox", "addr:full": "G-63 shree Arcade, Abu Highway, Nr.Income Tox Office, Palanpur", "phones": {"Store": []}, "email": {"Customer Service": []}, "website": "https://www.klubfox.com/_api/cloud-data/v1/wix-data/collections/query", "operatingHours": {"Store": []}, "brand": "Klub Fox", "chain_id": 34167, "chain_name": "Klub Fox"}},
{"type": "Feature", "id": "ePwtPsbhkqeTfUqbzgtDJosCbpU=", "properties": {"ref": "0da1c742b45445c295d24429e8ecce2c", "@spider": "klubfox", "addr:full": "Gopal Ganj, Near Arya Samaj Mandir, Pratapgarh, Rajasthan 312605, Mob:-9413459928", "phones": {"Store": []}, "email": {"Customer Service": []}, "website": "https://www.klubfox.com/_api/cloud-data/v1/wix-data/collections/query", "operatingHours": {"Store": []}, "brand": "Klub Fox", "chain_id": 34167, "chain_name": "Klub Fox"}},
{"type": "Feature", "id": "UqbAkW5PaMqLmej7tMagQsiD24A=", "properties": {"ref": "435dbcf7158a4c5889e24d32176f6f79", "@spider": "klubfox", "addr:full": "SUPER MARKET, SUPER MARKET RAIBAREILLY\nMOBILE NO:-0535-2212412", "phones": {"Store": []}, "email": {"Customer Service": []}, "website": "https://www.klubfox.com/_api/cloud-data/v1/wix-data/collections/query", "operatingHours": {"Store": []}, "brand": "Klub Fox", "chain_id": 34167, "chain_name": "Klub Fox"}},
{"type": "Feature", "id": "wucn4cG7bxLNbXmXIUuNLl53iOw=", "properties": {"ref": "47fac32dc76e46238bdb39a25b4528f0", "@spider": "klubfox", "addr:full": "SHOPPING SQUARE COMPLEX,SHAHID CHOWK GOPI TALKIES ROAD,RAIGARH\nCHHATTISGARH-496001", "phones": {"Store": []}, "email": {"Customer Service": []}, "website": "https://www.klubfox.com/_api/cloud-data/v1/wix-data/collections/query", "operatingHours": {"Store": []}, "brand": "Klub Fox", "chain_id": 34167, "chain_name": "Klub Fox"}},
{"type": "Feature", "id": "Ktkrx2d7Mn0OexZY5kAN_J5W4Yg=", "properties": {"ref": "7117fc8932a940cea30f8979e2d7f107", "@spider": "klubfox", "addr:full": "MAIN ROAD,AZAD CHOWK RAIPUR, CHHATTISGARH\nMOBILE NO:-07714088889", "phones": {"Store": []}, "email": {"Customer Service": []}, "website": "https://www.klubfox.com/_api/cloud-data/v1/wix-data/collections/query", "operatingHours": {"Store": []}, "brand": "Klub Fox", "chain_id": 34167, "chain_name": "Klub Fox"}},
{"type": "Feature", "id": "GbyTKCFTrXBypb9TBmS_naJFuSQ=", "properties": {"ref": "45804dcb02a045e489847fd373815bd6", "@spider": "klubfox", "addr:full": "Shop no.-FF04,MAGNETO MALL,LABHANDI\nMOBILE NO:-07714066992", "phones": {"Store": []}, "email": {"Customer Service": []}, "website": "https://www.klubfox.com/_api/cloud-data/v1/wix-data/collections/query", "operatingHours": {"Store": []}, "brand": "Klub Fox", "chain_id": 34167, "chain_name": "Klub Fox"}},
{"type": "Feature", "id": "LNQmmunhSXn77BT4T8WT66apZYo=", "properties": {"ref": "b5ee6385166c4574b495258e4d144445", "@spider": "klubfox", "addr:full": "MALVIYA ROAD,NEAR MADRASI RESTURANT,Raipur,TEL:-07714095758", "phones": {"Store": []}, "email": {"Customer Service": []}, "website": "https://www.klubfox.com/_api/cloud-data/v1/wix-data/collections/query", "operatingHours": {"Store": []}, "brand": "Klub Fox", "chain_id": 34167, "chain_name": "Klub Fox"}},
{"type": "Feature", "id": "EVUYpMV2bvv-bulBxXncMNFUQJs=", "properties": {"ref": "7ef2eeb8edb3425c8c1eafa842aea3af", "@spider": "klubfox", "addr:full": "SANT KANWAR RAM DHARAMSHALA LAKE NAGAR CHOWK ,Raipur", "phones": {"Store": []}, "email": {"Customer Service": []}, "website": "https://www.klubfox.com/_api/cloud-data/v1/wix-data/collections/query", "operatingHours": {"Store": []}, "brand": "Klub Fox", "chain_id": 34167, "chain_name": "Klub Fox"}},
{"type": "Feature", "id": "hlJoGiQxBJHnbdl2dzVglshrC3c=", "properties": {"ref": "fd041d948c794b13ae528509efad736f", "@spider": "klubfox", "addr:full": "100FT RD, OPP HDFC BANK, CIVIL LINES ,RAJSAMAND, RAJ, 313326, MOB :-9413472346.", "phones": {"Store": []}, "email": {"Customer Service": []}, "website": "https://www.klubfox.com/_api/cloud-data/v1/wix-data/collections/query", "operatingHours": {"Store": []}, "brand": "Klub Fox", "chain_id": 34167, "chain_name": "Klub Fox"}},
{"type": "Feature", "id": "7uxUpaWeGRmWvzXAXTQGf7C3uaw=", "properties": {"ref": "257d92ad42de4cf5b26d024638b874da", "@spider": "klubfox", "addr:full": "57 STATION ROAD, Ratlam", "phones": {"Store": []}, "email": {"Customer Service": []}, "website": "https://www.klubfox.com/_api/cloud-data/v1/wix-data/collections/query", "operatingHours": {"Store": []}, "brand": "Klub Fox", "chain_id": 34167, "chain_name": "Klub Fox"}},
{"type": "Feature", "id": "IPgb14ccBMPkLABAl7IMB9TlJ-o=", "properties": {"ref": "c3c926160b2a49d89a8bae8acb4c0131", "@spider": "klubfox", "addr:full": "UPBHOKTA BHANDAR,REWA", "phones": {"Store": []}, "email": {"Customer Service": []}, "website": "https://www.klubfox.com/_api/cloud-data/v1/wix-data/collections/query", "operatingHours": {"Store": []}, "brand": "Klub Fox", "chain_id": 34167, "chain_name": "Klub Fox"}},
{"type": "Feature", "id": "msoCvAuoawMxdFdZFAMOWyonQbo=", "properties": {"ref": "7658f9f455a242769cb649c0343c9055", "@spider": "klubfox", "addr:full": "GUJRATI BAZAR,Sagar 9827269141", "phones": {"Store": []}, "email": {"Customer Service": []}, "website": "https://www.klubfox.com/_api/cloud-data/v1/wix-data/collections/query", "operatingHours": {"Store": []}, "brand": "Klub Fox", "chain_id": 34167, "chain_name": "Klub Fox"}},
{"type": "Feature", "id": "kTj1BXXBX1zGpFpvPBWZBUY003k=", "properties": {"ref": "324570dd59a9464788db5399e686f125", "@spider": "klubfox", "addr:full": "Daal Chauraya,Near mantri tractor showroom,Salumber,Rajasthan\nTEL:-9929806960", "phones": {"Store": []}, "email": {"Customer Service": []}, "website": "https://www.klubfox.com/_api/cloud-data/v1/wix-data/collections/query", "operatingHours": {"Store": []}, "brand": "Klub Fox", "chain_id": 34167, "chain_name": "Klub Fox"}},
{"type": "Feature", "id": "5bGI9VJ_qqjPvlmcUwJs2A-oJBk=", "properties": {"ref": "bf95b785d66f41b6b8dbf201ba93b27c", "@spider": "klubfox", "addr:full": "Hospital Chowk,Satna.Madhya Pradesh", "phones": {"Store": []}, "email": {"Customer Service": []}, "website": "https://www.klubfox.com/_api/cloud-data/v1/wix-data/collections/query", "operatingHours": {"Store": []}, "brand": "Klub Fox", "chain_id": 34167, "chain_name": "Klub Fox"}},
{"type": "Feature", "id": "8q78lGagQDVcaBdpNPppJmzOjeQ=", "properties": {"ref": "a0093043ac3e48d9b0d5c3691db660bb", "@spider": "klubfox", "addr:full": "SHOP NO. 8 UTTAM CHAND MALOO COMPLEX BAHOBALL CHOWK BARA PATHAR Seoni", "phones": {"Store": []}, "email": {"Customer Service": []}, "website": "https://www.klubfox.com/_api/cloud-data/v1/wix-data/collections/query", "operatingHours": {"Store": []}, "brand": "Klub Fox", "chain_id": 34167, "chain_name": "Klub Fox"}},
{"type": "Feature", "id": "45xcLQ3ZX5bg5OVO3wLX1KAjDB4=", "properties": {"ref": "d47a64582ae744e4a5d7a5e29fc91431", "@spider": "klubfox", "addr:full": "26 SHALA VIKAS MARKET NEW GANDHI CHOWK Shahdol", "phones": {"Store": []}, "email": {"Customer Service": []}, "website": "https://www.klubfox.com/_api/cloud-data/v1/wix-data/collections/query", "operatingHours": {"Store": []}, "brand": "Klub Fox", "chain_id": 34167, "chain_name": "Klub Fox"}},
{"type": "Feature", "id": "jktDwLJFcFfafAiu8OYZtgpUglk=", "properties": {"ref": "abac04e41f984d10b11459561f3d5c08", "@spider": "klubfox", "addr:full": "NEAR BANK OF INDIA,NEW ROAD, SHAJAPUR, MADHYA PRADESH", "phones": {"Store": []}, "email": {"Customer Service": []}, "website": "https://www.klubfox.com/_api/cloud-data/v1/wix-data/collections/query", "operatingHours": {"Store": []}, "brand": "Klub Fox", "chain_id": 34167, "chain_name": "Klub Fox"}},
{"type": "Feature", "id": "j--pAPVrX63QOE3_3QH0qv2OtRc=", "properties": {"ref": "09aa01b297ce4532b4c63db8177c846d", "@spider": "klubfox", "addr:full": "1934,Dr.Ambedkar Road,Near Narmada telecommunication,Shirpur,Dist-Dhule", "phones": {"Store": []}, "email": {"Customer Service": []}, "website": "https://www.klubfox.com/_api/cloud-data/v1/wix-data/collections/query", "operatingHours": {"Store": []}, "brand": "Klub Fox", "chain_id": 34167, "chain_name": "Klub Fox"}},
{"type": "Feature", "id": "9UWZsBlANWPRgREFJZjfYm1XcUk=", "properties": {"ref": "8459db7c33dd4bd0aca06a93a00136a8", "@spider": "klubfox", "addr:full": "SHOP NO 1,CITY CENTER MALL ,NEAR SBI BANK,STAION ROAD.Sikar", "phones": {"Store": []}, "email": {"Customer Service": []}, "website": "https://www.klubfox.com/_api/cloud-data/v1/wix-data/collections/query", "operatingHours": {"Store": []}, "brand": "Klub Fox", "chain_id": 34167, "chain_name": "Klub Fox"}},
{"type": "Feature", "id": "7MvjPuUmlFxRQ_lJ1UhXcSkkvOo=", "properties": {"ref": "238ec999f95247dbba29bb727da507d0", "@spider": "klubfox", "addr:full": "OSHAMA COMPLEX,REGISTRY KACHAHARI ROAD, SIWAN, BIHAR,\nMOBILE NO:-9471284786", "phones": {"Store": []}, "email": {"Customer Service": []}, "website": "https://www.klubfox.com/_api/cloud-data/v1/wix-data/collections/query", "operatingHours": {"Store": []}, "brand": "Klub Fox", "chain_id": 34167, "chain_name": "Klub Fox"}},
{"type": "Feature", "id": "fhjzkNhxvuYbTpPjyLQJS71Jj9c=", "properties": {"ref": "4aab244e316443e9b8e5d153b7830c6c", "@spider": "klubfox", "addr:full": "8515/A/3B Murarji Peth,Sarswati Chowk,Solapur", "phones": {"Store": []}, "email": {"Customer Service": []}, "website": "https://www.klubfox.com/_api/cloud-data/v1/wix-data/collections/query", "operatingHours": {"Store": []}, "brand": "Klub Fox", "chain_id": 34167, "chain_name": "Klub Fox"}},
{"type": "Feature", "id": "Jjv7UXSE2t9O5-95iHMSnAikwZY=", "properties": {"ref": "6279e23706e0429aae8991c7d3b79f31", "@spider": "klubfox", "addr:full": "PLOT NO.13, SUBASH CHOWK,NR. BALOOM HOTEL, Sonipat Haryana", "phones": {"Store": []}, "email": {"Customer Service": []}, "website": "https://www.klubfox.com/_api/cloud-data/v1/wix-data/collections/query", "operatingHours": {"Store": []}, "brand": "Klub Fox", "chain_id": 34167, "chain_name": "Klub Fox"}},
{"type": "Feature", "id": "ZiEpYEGSn1bxFc-QRYHY32Q7UmE=", "properties": {"ref": "caf56609b8ef4f3d9e1318b919119a73", "@spider": "klubfox", "addr:full": "SWAMI DAYANAND MARG PAHLI GALI NEAR AGRA TIKKI WALA SRIGANGANAGAR \nRAJSTHAN", "phones": {"Store": []}, "email": {"Customer Service": []}, "website": "https://www.klubfox.com/_api/cloud-data/v1/wix-data/collections/query", "operatingHours": {"Store": []}, "brand": "Klub Fox", "chain_id": 34167, "chain_name": "Klub Fox"}},
{"type": "Feature", "id": "k6F8ZR9sBLQWYmMz_4H1mA3jwZs=", "properties": {"ref": "3ae24bcc1c4f420f8df22378395c9c81", "@spider": "klubfox", "addr:full": "4-5, ASHOK NAGAR MAIN ROAD, NEAR JAIN TEMPLE , UDAIPUR,RAJASTHAN\nMOBILE NO:-9414167495", "phones": {"Store": []}, "email": {"Customer Service": []}, "website": "https://www.klubfox.com/_api/cloud-data/v1/wix-data/collections/query", "operatingHours": {"Store": []}, "brand": "Klub Fox", "chain_id": 34167, "chain_name": "Klub Fox"}},
{"type": "Feature", "id": "N691GNsDxk_j582iJii2etioPbU=", "properties": {"ref": "0fb34f810a5945a5acb4dd9bee30c37e", "@spider": "klubfox", "addr:full": "36-37, 1ST FLOOR,BAPU BAZAR,Udaipur", "phones": {"Store": []}, "email": {"Customer Service": []}, "website": "https://www.klubfox.com/_api/cloud-data/v1/wix-data/collections/query", "operatingHours": {"Store": []}, "brand": "Klub Fox", "chain_id": 34167, "chain_name": "Klub Fox"}},
{"type": "Feature", "id": "KMdsvTK3aPFnfZypEGXEr3ga5UE=", "properties": {"ref": "6580f502f23349a4a58b82e554d063aa", "@spider": "klubfox", "addr:full": "89 BAPU BAZAR NEAR RAYMOND SHOWROOM UDAIPUR RAJSTHAN", "phones": {"Store": []}, "email": {"Customer Service": []}, "website": "https://www.klubfox.com/_api/cloud-data/v1/wix-data/collections/query", "operatingHours": {"Store": []}, "brand": "Klub Fox", "chain_id": 34167, "chain_name": "Klub Fox"}},
{"type": "Feature", "id": "olF1fb3VxZPzy1s7-CsVPinmht8=", "properties": {"ref": "e46c4ba82dc94a8ba16d1d058e256c7e", "@spider": "klubfox", "addr:full": "1, BHOJ MARG, FREE GUNJ, R. K. PLAZA UJJAIN", "phones": {"Store": []}, "email": {"Customer Service": []}, "website": "https://www.klubfox.com/_api/cloud-data/v1/wix-data/collections/query", "operatingHours": {"Store": []}, "brand": "Klub Fox", "chain_id": 34167, "chain_name": "Klub Fox"}},
{"type": "Feature", "id": "Octq9xb-oklH-DqiDj3MFqOc6Po=", "properties": {"ref": "fe904fa809c2454db6a0c422677ea6f3", "@spider": "klubfox", "addr:full": "RAOPURA, MAIN ROAD, OPP.MACHHIPITH,Vadodara BARODA", "phones": {"Store": []}, "email": {"Customer Service": []}, "website": "https://www.klubfox.com/_api/cloud-data/v1/wix-data/collections/query", "operatingHours": {"Store": []}, "brand": "Klub Fox", "chain_id": 34167, "chain_name": "Klub Fox"}},
{"type": "Feature", "id": "OlxDfAL4S0qG-UnTAAcPApEbHV0=", "properties": {"ref": "de5b54643c9041c392863a6af97be61a", "@spider": "klubfox", "addr:full": "N/7 1A-2R NEWADA SUNDERPUR OPP PNB BANK(DLW-BHU ROAD) VARANASI UTTAR PRADESH", "phones": {"Store": []}, "email": {"Customer Service": []}, "website": "https://www.klubfox.com/_api/cloud-data/v1/wix-data/collections/query", "operatingHours": {"Store": []}, "brand": "Klub Fox", "chain_id": 34167, "chain_name": "Klub Fox"}},
{"type": "Feature", "id": "2T5vcm-IMbIh8Icrv1sL4PiDRoU=", "properties": {"ref": "6b49f765d4484bf882ad8e49f2a01013", "@spider": "klubfox", "addr:full": "KUMAR SADAN,MAIN ROAD Vidisha", "phones": {"Store": []}, "email": {"Customer Service": []}, "website": "https://www.klubfox.com/_api/cloud-data/v1/wix-data/collections/query", "operatingHours": {"Store": []}, "brand": "Klub Fox", "chain_id": 34167, "chain_name": "Klub Fox"}},
{"type": "Feature", "id": "g70kbTBMVmx6fRNcUow9Ww-jzHg=", "properties": {"ref": "99b4b13e0fd24167bf8e09433fb0c058", "@spider": "klubfox", "addr:full": "TULSI MARG,POST OFFICE,Waidhan", "phones": {"Store": []}, "email": {"Customer Service": []}, "website": "https://www.klubfox.com/_api/cloud-data/v1/wix-data/collections/query", "operatingHours": {"Store": []}, "brand": "Klub Fox", "chain_id": 34167, "chain_name": "Klub Fox"}},
{"type": "Feature", "id": "iNsnKwfVwl4YThzR3O9ME6M2Jcs=", "properties": {"ref": "e66be488ef004796afa1dbcf0b7b397d", "@spider": "klubfox", "addr:full": "KATHED OIL MILL CHOWK, WANI DISTT.YAVATMAL MAHARASHTRA", "phones": {"Store": []}, "email": {"Customer Service": []}, "website": "https://www.klubfox.com/_api/cloud-data/v1/wix-data/collections/query", "operatingHours": {"Store": []}, "brand": "Klub Fox", "chain_id": 34167, "chain_name": "Klub Fox"}},
{"type": "Feature", "id": "KIkCi3SN8s2menXX7RfQhhpnYkM=", "properties": {"ref": "5390084635b141d9847eb8a78bfebcd5", "@spider": "klubfox", "addr:full": "KAPDA LINE, Wardha", "phones": {"Store": []}, "email": {"Customer Service": []}, "website": "https://www.klubfox.com/_api/cloud-data/v1/wix-data/collections/query", "operatingHours": {"Store": []}, "brand": "Klub Fox", "chain_id": 34167, "chain_name": "Klub Fox"}},
{"type": "Feature", "id": "n2Mwmaqs7p_Py-lj7ghtsC55K60=", "properties": {"ref": "bbe80c89926043deb792640d3d1aaa04", "@spider": "klubfox", "addr:full": "OPP NEHRU PARK,MODEL TOWN YAMUNA NAGAR HARYANA", "phones": {"Store": []}, "email": {"Customer Service": []}, "website": "https://www.klubfox.com/_api/cloud-data/v1/wix-data/collections/query", "operatingHours": {"Store": []}, "brand": "Klub Fox", "chain_id": 34167, "chain_name": "Klub Fox"}},
{"type": "Feature", "id": "4bpJNvfE-HUM778_Ytcpu0U6_Fw=", "properties": {"ref": "53c5c3e605cd423ebd38a1eb53a4da0b", "@spider": "klubfox", "addr:full": "NEW INDIRA GANDHI MARKET, YAVATMAL (MS)", "phones": {"Store": []}, "email": {"Customer Service": []}, "website": "https://www.klubfox.com/_api/cloud-data/v1/wix-data/collections/query", "operatingHours": {"Store": []}, "brand": "Klub Fox", "chain_id": 34167, "chain_name": "Klub Fox"}}]}